CCSDS_OMM_VERS = 2.0
CREATION_DATE  = 
ORIGINATOR     = 

OBJECT_NAME    = SL-4 R/B
OBJECT_ID      = 2014-021B
CENTER_NAME    = EARTH
REF_FRAME      = TEME
TIME_SYSTEM    = UTC
MEAN_ELEMENT_THEORY = SGP/SGP4

EPOCH          = 2025-12-17T07:09:05.065056
MEAN_MOTION    = 15.36777869
ECCENTRICITY   = .0101413
INCLINATION    = 51.6088
RA_OF_ASC_NODE = 18.4407
ARG_OF_PERICENTER = 162.6468
MEAN_ANOMALY   = 197.8022

EPHEMERIS_TYPE = 0
CLASSIFICATION_TYPE = U
NORAD_CAT_ID   = 39679
ELEMENT_SET_NO = 999
REV_AT_EPOCH   = 64359
BSTAR          = .25279352E-3
MEAN_MOTION_DOT = .10536E-3
MEAN_MOTION_DDOT = 0

CCSDS_OMM_VERS = 2.0
CREATION_DATE  = 
ORIGINATOR     = 

OBJECT_NAME    = ALOS-2
OBJECT_ID      = 2014-029A
CENTER_NAME    = EARTH
REF_FRAME      = TEME
TIME_SYSTEM    = UTC
MEAN_ELEMENT_THEORY = SGP/SGP4

EPOCH          = 2025-12-17T22:49:07.302144
MEAN_MOTION    = 14.79473076
ECCENTRICITY   = .00013423
INCLINATION    = 97.9225
RA_OF_ASC_NODE = 86.7226
ARG_OF_PERICENTER = 97.2278
MEAN_ANOMALY   = 262.9086

EPHEMERIS_TYPE = 0
CLASSIFICATION_TYPE = U
NORAD_CAT_ID   = 39766
ELEMENT_SET_NO = 999
REV_AT_EPOCH   = 62478
BSTAR          = .16216806E-3
MEAN_MOTION_DOT = .116E-4
MEAN_MOTION_DDOT = 0

CCSDS_OMM_VERS = 2.0
CREATION_DATE  = 
ORIGINATOR     = 

OBJECT_NAME    = YAOGAN-29
OBJECT_ID      = 2015-069A
CENTER_NAME    = EARTH
REF_FRAME      = TEME
TIME_SYSTEM    = UTC
MEAN_ELEMENT_THEORY = SGP/SGP4

EPOCH          = 2025-12-18T00:22:06.689280
MEAN_MOTION    = 14.82886752
ECCENTRICITY   = .00003121
INCLINATION    = 98.0218
RA_OF_ASC_NODE = 15.2044
ARG_OF_PERICENTER = 198.0968
MEAN_ANOMALY   = 162.0234

EPHEMERIS_TYPE = 0
CLASSIFICATION_TYPE = U
NORAD_CAT_ID   = 41038
ELEMENT_SET_NO = 999
REV_AT_EPOCH   = 54377
BSTAR          = .1595552E-4
MEAN_MOTION_DOT = .75E-6
MEAN_MOTION_DDOT = 0

CCSDS_OMM_VERS = 2.0
CREATION_DATE  = 
ORIGINATOR     = 

OBJECT_NAME    = ASTRO-H (HITOMI)
OBJECT_ID      = 2016-012A
CENTER_NAME    = EARTH
REF_FRAME      = TEME
TIME_SYSTEM    = UTC
MEAN_ELEMENT_THEORY = SGP/SGP4

EPOCH          = 2025-12-17T20:21:35.381952
MEAN_MOTION    = 15.09383944
ECCENTRICITY   = .00097361
INCLINATION    = 30.9977
RA_OF_ASC_NODE = 164.4367
ARG_OF_PERICENTER = 229.9585
MEAN_ANOMALY   = 130.0199

EPHEMERIS_TYPE = 0
CLASSIFICATION_TYPE = U
NORAD_CAT_ID   = 41337
ELEMENT_SET_NO = 999
REV_AT_EPOCH   = 53985
BSTAR          = .15271637E-3
MEAN_MOTION_DOT = .2597E-4
MEAN_MOTION_DDOT = 0

CCSDS_OMM_VERS = 2.0
CREATION_DATE  = 
ORIGINATOR     = 

OBJECT_NAME    = HXMT (HUIYAN)
OBJECT_ID      = 2017-034A
CENTER_NAME    = EARTH
REF_FRAME      = TEME
TIME_SYSTEM    = UTC
MEAN_ELEMENT_THEORY = SGP/SGP4

EPOCH          = 2025-12-17T19:08:10.131936
MEAN_MOTION    = 15.16290697
ECCENTRICITY   = .00311703
INCLINATION    = 43.0132
RA_OF_ASC_NODE = 111.5602
ARG_OF_PERICENTER = 76.6088
MEAN_ANOMALY   = 283.8231

EPHEMERIS_TYPE = 0
CLASSIFICATION_TYPE = U
NORAD_CAT_ID   = 42758
ELEMENT_SET_NO = 999
REV_AT_EPOCH   = 47010
BSTAR          = .21175686E-3
MEAN_MOTION_DOT = .3985E-4
MEAN_MOTION_DDOT = 0

CCSDS_OMM_VERS = 2.0
CREATION_DATE  = 
ORIGINATOR     = 

OBJECT_NAME    = CZ-2C R/B
OBJECT_ID      = 2018-054D
CENTER_NAME    = EARTH
REF_FRAME      = TEME
TIME_SYSTEM    = UTC
MEAN_ELEMENT_THEORY = SGP/SGP4

EPOCH          = 2025-12-17T19:21:13.841280
MEAN_MOTION    = 15.75143768
ECCENTRICITY   = .00151342
INCLINATION    = 35.1316
RA_OF_ASC_NODE = 146.5094
ARG_OF_PERICENTER = 196.0827
MEAN_ANOMALY   = 163.9427

EPHEMERIS_TYPE = 0
CLASSIFICATION_TYPE = U
NORAD_CAT_ID   = 43521
ELEMENT_SET_NO = 999
REV_AT_EPOCH   = 41585
BSTAR          = .66991609E-3
MEAN_MOTION_DOT = .106096E-2
MEAN_MOTION_DDOT = 0

CCSDS_OMM_VERS = 2.0
CREATION_DATE  = 
ORIGINATOR     = 

OBJECT_NAME    = SAOCOM 1A
OBJECT_ID      = 2018-076A
CENTER_NAME    = EARTH
REF_FRAME      = TEME
TIME_SYSTEM    = UTC
MEAN_ELEMENT_THEORY = SGP/SGP4

EPOCH          = 2025-12-17T22:30:17.255808
MEAN_MOTION    = 14.82162982
ECCENTRICITY   = .00014409
INCLINATION    = 97.8840
RA_OF_ASC_NODE = 176.2835
ARG_OF_PERICENTER = 80.4806
MEAN_ANOMALY   = 279.6570

EPHEMERIS_TYPE = 0
CLASSIFICATION_TYPE = U
NORAD_CAT_ID   = 43641
ELEMENT_SET_NO = 999
REV_AT_EPOCH   = 38925
BSTAR          = .46103269E-4
MEAN_MOTION_DOT = .315E-5
MEAN_MOTION_DDOT = 0

CCSDS_OMM_VERS = 2.0
CREATION_DATE  = 
ORIGINATOR     = 

OBJECT_NAME    = H-2A R/B
OBJECT_ID      = 2018-084L
CENTER_NAME    = EARTH
REF_FRAME      = TEME
TIME_SYSTEM    = UTC
MEAN_ELEMENT_THEORY = SGP/SGP4

EPOCH          = 2025-12-17T12:12:23.357088
MEAN_MOTION    = 15.37541372
ECCENTRICITY   = .0027022
INCLINATION    = 98.8768
RA_OF_ASC_NODE = 186.5764
ARG_OF_PERICENTER = 309.8767
MEAN_ANOMALY   = 50.0097

EPHEMERIS_TYPE = 0
CLASSIFICATION_TYPE = U
NORAD_CAT_ID   = 43682
ELEMENT_SET_NO = 999
REV_AT_EPOCH   = 39313
BSTAR          = .42076805E-3
MEAN_MOTION_DOT = .15592E-3
MEAN_MOTION_DDOT = 0

CCSDS_OMM_VERS = 2.0
CREATION_DATE  = 
ORIGINATOR     = 

OBJECT_NAME    = SAOCOM 1B
OBJECT_ID      = 2020-059A
CENTER_NAME    = EARTH
REF_FRAME      = TEME
TIME_SYSTEM    = UTC
MEAN_ELEMENT_THEORY = SGP/SGP4

EPOCH          = 2025-12-17T20:00:51.633216
MEAN_MOTION    = 14.82143701
ECCENTRICITY   = .00014092
INCLINATION    = 97.8837
RA_OF_ASC_NODE = 175.2817
ARG_OF_PERICENTER = 84.9768
MEAN_ANOMALY   = 275.1606

EPHEMERIS_TYPE = 0
CLASSIFICATION_TYPE = U
NORAD_CAT_ID   = 46265
ELEMENT_SET_NO = 999
REV_AT_EPOCH   = 28662
BSTAR          = .76399271E-4
MEAN_MOTION_DOT = .556E-5
MEAN_MOTION_DDOT = 0

CCSDS_OMM_VERS = 2.0
CREATION_DATE  = 
ORIGINATOR     = 

OBJECT_NAME    = CSS (TIANHE)
OBJECT_ID      = 2021-035A
CENTER_NAME    = EARTH
REF_FRAME      = TEME
TIME_SYSTEM    = UTC
MEAN_ELEMENT_THEORY = SGP/SGP4

EPOCH          = 2025-12-17T17:03:03.263616
MEAN_MOTION    = 15.59389869
ECCENTRICITY   = .00077031
INCLINATION    = 41.4683
RA_OF_ASC_NODE = 346.5260
ARG_OF_PERICENTER = 74.1787
MEAN_ANOMALY   = 285.9900

EPHEMERIS_TYPE = 0
CLASSIFICATION_TYPE = U
NORAD_CAT_ID   = 48274
ELEMENT_SET_NO = 999
REV_AT_EPOCH   = 26480
BSTAR          = .25361987E-3
MEAN_MOTION_DOT = .2035E-3
MEAN_MOTION_DDOT = 0

CCSDS_OMM_VERS = 2.0
CREATION_DATE  = 
ORIGINATOR     = 

OBJECT_NAME    = COSMOS 2550
OBJECT_ID      = 2021-056A
CENTER_NAME    = EARTH
REF_FRAME      = TEME
TIME_SYSTEM    = UTC
MEAN_ELEMENT_THEORY = SGP/SGP4

EPOCH          = 2025-12-17T22:37:25.374720
MEAN_MOTION    = 15.33835396
ECCENTRICITY   = .000835
INCLINATION    = 67.1456
RA_OF_ASC_NODE = 288.1963
ARG_OF_PERICENTER = 269.0721
MEAN_ANOMALY   = 90.9477

EPHEMERIS_TYPE = 0
CLASSIFICATION_TYPE = U
NORAD_CAT_ID   = 48865
ELEMENT_SET_NO = 999
REV_AT_EPOCH   = 25092
BSTAR          = .2639066E-5
MEAN_MOTION_DOT = -.105E-5
MEAN_MOTION_DDOT = 0

CCSDS_OMM_VERS = 2.0
CREATION_DATE  = 
ORIGINATOR     = 

OBJECT_NAME    = CZ-2C R/B
OBJECT_ID      = 2022-058K
CENTER_NAME    = EARTH
REF_FRAME      = TEME
TIME_SYSTEM    = UTC
MEAN_ELEMENT_THEORY = SGP/SGP4

EPOCH          = 2025-12-17T18:36:45.799776
MEAN_MOTION    = 15.48742641
ECCENTRICITY   = .00450663
INCLINATION    = 50.1912
RA_OF_ASC_NODE = 17.8630
ARG_OF_PERICENTER = 219.3409
MEAN_ANOMALY   = 140.4283

EPHEMERIS_TYPE = 0
CLASSIFICATION_TYPE = U
NORAD_CAT_ID   = 52794
ELEMENT_SET_NO = 999
REV_AT_EPOCH   = 19741
BSTAR          = .34856023E-3
MEAN_MOTION_DOT = .19418E-3
MEAN_MOTION_DDOT = 0

