SL-4 R/B                
1 39679U 14021B   25351.29797529  .00010536  00000+0  25279-3 0  9990
2 39679  51.6088  18.4407 0101413 162.6468 197.8022 15.36777869643596
ALOS-2                  
1 39766U 14029A   25351.95077896  .00001160  00000+0  16217-3 0  9991
2 39766  97.9225  86.7226 0001342  97.2278 262.9086 14.79473076624781
YAOGAN-29               
1 41038U 15069A   25352.01535520  .00000075  00000+0  15956-4 0  9996
2 41038  98.0218  15.2044 0000312 198.0968 162.0234 14.82886752543774
ASTRO-H (HITOMI)        
1 41337U 16012A   25351.84832618  .00002597  00000+0  15272-3 0  9996
2 41337  30.9977 164.4367 0009736 229.9585 130.0199 15.09383944539850
HXMT (HUIYAN)           
1 42758U 17034A   25351.79733949  .00003985  00000+0  21176-3 0  9992
2 42758  43.0132 111.5602 0031170  76.6088 283.8231 15.16290697470109
CZ-2C R/B               
1 43521U 18054D   25351.80641020  .00106096  00000+0  66992-3 0  9996
2 43521  35.1316 146.5094 0015134 196.0827 163.9427 15.75143768415854
SAOCOM 1A               
1 43641U 18076A   25351.93769972  .00000315  00000+0  46103-4 0  9994
2 43641  97.8840 176.2835 0001440  80.4806 279.6570 14.82162982389259
H-2A R/B                
1 43682U 18084L   25351.50860367  .00015592  00000+0  42077-3 0  9999
2 43682  98.8768 186.5764 0027022 309.8767  50.0097 15.37541372393139
SAOCOM 1B               
1 46265U 20059A   25351.83393094  .00000556  00000+0  76399-4 0  9997
2 46265  97.8837 175.2817 0001409  84.9768 275.1606 14.82143701286626
CSS (TIANHE)            
1 48274U 21035A   25351.71045444  .00020350  00000+0  25362-3 0  9991
2 48274  41.4683 346.5260 0007703  74.1787 285.9900 15.59389869264806
COSMOS 2550             
1 48865U 21056A   25351.94265480 -.00000105  00000+0  26391-5 0  9991
2 48865  67.1456 288.1963 0008350 269.0721  90.9477 15.33835396250922
CZ-2C R/B               
1 52794U 22058K   25351.77553009  .00019418  00000+0  34856-3 0  9997
2 52794  50.1912  17.8630 0045066 219.3409 140.4283 15.48742641197417
